GLOBALSTAR M063 [+]     
1 26081U 00008A   24082.57262187 -.00000078  00000+0  68797-4 0  9995
2 26081  51.9937 220.9429 0005208 161.2802 281.4327 11.86152325104046
GLOBALSTAR M062 [-]     
1 26082U 00008B   24082.93718362  .00000027  00000+0  89503-3 0  9997
2 26082  51.9875 342.7356 0006465 226.8204 214.9398 12.43431932440488
GLOBALSTAR M060 [-]     
1 26083U 00008C   24082.84745681 -.00000083  00000+0  74834-4 0  9997
2 26083  52.0008 239.1541 0002488 288.6711 219.6313 12.17628058 97388
GLOBALSTAR M064 [-]     
1 26084U 00008D   24082.86220663 -.00000029  00000+0  77258-3 0  9990
2 26084  52.0054 324.3334 0000712 280.5728  79.5025 11.88516521113430
GLOBALSTAR M065 [+]     
1 31571U 07020A   24082.93154752 -.00000087  00000+0  92706-4 0  9991
2 31571  51.9883 159.6945 0010346  31.4575  18.0333 12.61964539776432
GLOBALSTAR M072 [+]     
1 31574U 07020D   24082.55289708 -.00000079  00000+0  13583-3 0  9998
2 31574  52.0072 212.6426 0001076 117.4954 322.7870 12.62269115775784
GLOBALSTAR M071 [P]     
1 31576U 07020F   24082.43062660 -.00000051  00000+0  29289-3 0  9993
2 31576  52.0051 122.2541 0001103 196.9914 267.3403 12.62269806438684
